[{"OBJECT_NAME":"IRIDIUM 136","OBJECT_ID":"2017-061H","EPOCH":"2026-03-09T23:21:02.652768","MEAN_MOTION":14.34217428,"ECCENTRICITY":0.00020185,"INCLINATION":86.3917,"RA_OF_ASC_NODE":66.7307,"ARG_OF_PERICENTER":86.502,"MEAN_ANOMALY":273.6407,"EPHEMERIS_TYPE":0,"CLASSIFICATION_TYPE":"U","NORAD_CAT_ID":42962,"ELEMENT_SET_NO":999,"REV_AT_EPOCH":44061,"BSTAR":-6.150317e-6,"MEAN_MOTION_DOT":3.0e-8,"MEAN_MOTION_DDOT":0},{"OBJECT_NAME":"CZ-4 DEB","OBJECT_ID":"1990-081AR","EPOCH":"2026-03-09T22:30:20.511360","MEAN_MOTION":14.46147742,"ECCENTRICITY":0.00698313,"INCLINATION":98.4748,"RA_OF_ASC_NODE":79.0371,"ARG_OF_PERICENTER":215.8297,"MEAN_ANOMALY":143.82,"EPHEMERIS_TYPE":0,"CLASSIFICATION_TYPE":"U","NORAD_CAT_ID":20881,"ELEMENT_SET_NO":999,"REV_AT_EPOCH":83783,"BSTAR":0.0012305449,"MEAN_MOTION_DOT":4.487e-5,"MEAN_MOTION_DDOT":0}]
